start=new Date('2023-01-15T00:00:00.000Z').valueOf();
sats=[{"MEAN_ANOMALY":"317.1664","TLE_LINE2":"2 51779  53.2147 100.6254 0002215  42.9500 317.1664 15.08839111 50483","PERIOD":"95.438","REV_AT_EPOCH":"5048","PERIAPSIS":"538.216","LAUNCH_DATE":"2022-02-25","MEAN_ELEMENT_THEORY":"SGP4","NORAD_CAT_ID":"51779","MEAN_MOTION":"15.08839111","DECAY_DATE":null,"SITE":"AFWTR","INCLINATION":"53.2147","RCS_SIZE":"LARGE","SEMIMAJOR_AXIS":"6917.883","MEAN_MOTION_DDOT":"0.0000000000000","ECCENTRICITY":"0.00022150","TIME_SYSTEM":"UTC","EPHEMERIS_TYPE":"0","CLASSIFICATION_TYPE":"U","TLE_LINE1":"1 51779U 22017M   23014.92504171  .00002445  00000-0  17167-3 0  9990","MEAN_MOTION_DOT":"0.00002445","OBJECT_NAME":"STARLINK-3611","CENTER_NAME":"EARTH","GP_ID":"223028510","COUNTRY_CODE":"US","OBJECT_TYPE":"PAYLOAD","OBJECT_ID":"2022-017M","FILE":"3745263","EPOCH":"2023-01-14T22:12:03.603744","ELEMENT_SET_NO":"999","BSTAR":"0.00017167000000","RA_OF_ASC_NODE":"100.6254","APOAPSIS":"541.280","REF_FRAME":"TEME","ARG_OF_PERICENTER":"42.9500"},{"APOAPSIS":"541.193","ARG_OF_PERICENTER":"54.0017","REF_FRAME":"TEME","RA_OF_ASC_NODE":"103.6412","BSTAR":"0.00013822000000","EPOCH":"2023-01-14T06:03:40.734720","ELEMENT_SET_NO":"999","FILE":"3744428","OBJECT_ID":"2022-017N","GP_ID":"222992635","OBJECT_TYPE":"PAYLOAD","COUNTRY_CODE":"US","CENTER_NAME":"EARTH","MEAN_MOTION_DOT":"0.00001912","OBJECT_NAME":"STARLINK-3617","TLE_LINE1":"1 51780U 22017N   23014.25255480  .00001912  00000-0  13822-3 0  9996","CLASSIFICATION_TYPE":"U","MEAN_MOTION_DDOT":"0.0000000000000","ECCENTRICITY":"0.00020910","EPHEMERIS_TYPE":"0","TIME_SYSTEM":"UTC","RCS_SIZE":"LARGE","SEMIMAJOR_AXIS":"6917.881","SITE":"AFWTR","INCLINATION":"53.2158","NORAD_CAT_ID":"51780","LAUNCH_DATE":"2022-02-25","MEAN_ELEMENT_THEORY":"SGP4","REV_AT_EPOCH":"5043","PERIAPSIS":"538.300","MEAN_MOTION":"15.08839715","DECAY_DATE":null,"PERIOD":"95.438","MEAN_ANOMALY":"306.1169","TLE_LINE2":"2 51780  53.2158 103.6412 0002091  54.0017 306.1169 15.08839715 50438"},{"OBJECT_NAME":"STARLINK-3580","MEAN_MOTION_DOT":"0.00001564","CENTER_NAME":"EARTH","COUNTRY_CODE":"US","OBJECT_TYPE":"PAYLOAD","GP_ID":"223028513","FILE":"3745263","OBJECT_ID":"2022-017P","ELEMENT_SET_NO":"999","EPOCH":"2023-01-14T22:06:44.988192","RA_OF_ASC_NODE":"100.6362","BSTAR":"0.00011637000000","ARG_OF_PERICENTER":"46.6846","REF_FRAME":"TEME","APOAPSIS":"541.942","MEAN_ANOMALY":"313.4410","TLE_LINE2":"2 51781  53.2143 100.6362 0003178  46.6846 313.4410 15.08840674 50490","PERIOD":"95.438","MEAN_MOTION":"15.08840674","DECAY_DATE":null,"LAUNCH_DATE":"2022-02-25","NORAD_CAT_ID":"51781","MEAN_ELEMENT_THEORY":"SGP4","REV_AT_EPOCH":"5049","PERIAPSIS":"537.545","INCLINATION":"53.2143","SITE":"AFWTR","SEMIMAJOR_AXIS":"6917.878","RCS_SIZE":"LARGE","EPHEMERIS_TYPE":"0","TIME_SYSTEM":"UTC","MEAN_MOTION_DDOT":"0.0000000000000","ECCENTRICITY":"0.00031780","TLE_LINE1":"1 51781U 22017P   23014.92135403  .00001564  00000-0  11637-3 0  9998","CLASSIFICATION_TYPE":"U"},{"REV_AT_EPOCH":"5029","PERIAPSIS":"537.930","LAUNCH_DATE":"2022-02-25","NORAD_CAT_ID":"51782","MEAN_ELEMENT_THEORY":"SGP4","DECAY_DATE":null,"MEAN_MOTION":"15.08843434","TLE_LINE2":"2 51782  53.2190 112.0280 0002609  39.0124 321.1056 15.08843434 50299","MEAN_ANOMALY":"321.1056","PERIOD":"95.437","MEAN_MOTION_DDOT":"0.0000000000000","ECCENTRICITY":"0.00026090","TIME_SYSTEM":"UTC","EPHEMERIS_TYPE":"0","CLASSIFICATION_TYPE":"U","TLE_LINE1":"1 51782U 22017Q   23014.60762552  .00001629  00000-0  12043-3 0  9999","SITE":"AFWTR","INCLINATION":"53.2190","RCS_SIZE":"LARGE","SEMIMAJOR_AXIS":"6917.870","CENTER_NAME":"EARTH","GP_ID":"223001588","COUNTRY_CODE":"US","OBJECT_TYPE":"PAYLOAD","MEAN_MOTION_DOT":"0.00001629","OBJECT_NAME":"STARLINK-3616","BSTAR":"0.00012043000000","RA_OF_ASC_NODE":"112.0280","APOAPSIS":"541.540","REF_FRAME":"TEME","ARG_OF_PERICENTER":"39.0124","OBJECT_ID":"2022-017Q","FILE":"3744868","EPOCH":"2023-01-14T14:34:58.844928","ELEMENT_SET_NO":"999"},{"OBJECT_ID":"2022-017R","FILE":"3745263","ELEMENT_SET_NO":"999","EPOCH":"2023-01-14T12:29:08.780928","BSTAR":"0.00062881000000","RA_OF_ASC_NODE":"102.4373","REF_FRAME":"TEME","ARG_OF_PERICENTER":"38.4313","APOAPSIS":"541.280","OBJECT_NAME":"STARLINK-3628","MEAN_MOTION_DOT":"0.00009737","CENTER_NAME":"EARTH","COUNTRY_CODE":"US","OBJECT_TYPE":"PAYLOAD","GP_ID":"223028519","INCLINATION":"53.2149","SITE":"AFWTR","SEMIMAJOR_AXIS":"6917.843","RCS_SIZE":"LARGE","TIME_SYSTEM":"UTC","EPHEMERIS_TYPE":"0","MEAN_MOTION_DDOT":"0.0000000000000","ECCENTRICITY":"0.00022720","CLASSIFICATION_TYPE":"U","TLE_LINE1":"1 51783U 22017R   23014.52024052  .00009737  00000-0  62881-3 0  9990","MEAN_ANOMALY":"321.6841","TLE_LINE2":"2 51783  53.2149 102.4373 0002272  38.4313 321.6841 15.08852193 50423","PERIOD":"95.437","DECAY_DATE":null,"MEAN_MOTION":"15.08852193","PERIAPSIS":"538.136","REV_AT_EPOCH":"5042","LAUNCH_DATE":"2022-02-25","MEAN_ELEMENT_THEORY":"SGP4","NORAD_CAT_ID":"51783"},{"MEAN_MOTION":"15.08852920","DECAY_DATE":null,"NORAD_CAT_ID":"51784","LAUNCH_DATE":"2022-02-25","MEAN_ELEMENT_THEORY":"SGP4","PERIAPSIS":"538.522","REV_AT_EPOCH":"5031","TLE_LINE2":"2 51784  53.2160 111.7604 0001711  89.9738 270.1450 15.08852920 50316","MEAN_ANOMALY":"270.1450","PERIOD":"95.437","EPHEMERIS_TYPE":"0","TIME_SYSTEM":"UTC","MEAN_MOTION_DDOT":"0.0000000000000","ECCENTRICITY":"0.00017110","CLASSIFICATION_TYPE":"U","TLE_LINE1":"1 51784U 22017S   23014.67019476  .00003753  00000-0  25368-3 0  9992","INCLINATION":"53.2160","SITE":"AFWTR","SEMIMAJOR_AXIS":"6917.841","RCS_SIZE":"LARGE","CENTER_NAME":"EARTH","OBJECT_TYPE":"PAYLOAD","COUNTRY_CODE":"US","GP_ID":"223001780","OBJECT_NAME":"STARLINK-3632","MEAN_MOTION_DOT":"0.00003753","RA_OF_ASC_NODE":"111.7604","BSTAR":"0.00025368000000","ARG_OF_PERICENTER":"89.9738","REF_FRAME":"TEME","APOAPSIS":"540.890","FILE":"3744868","OBJECT_ID":"2022-017S","ELEMENT_SET_NO":"999","EPOCH":"2023-01-14T16:05:04.827264"},{"MEAN_MOTION_DOT":"0.00002280","OBJECT_NAME":"STARLINK-3646","CENTER_NAME":"EARTH","GP_ID":"223001599","COUNTRY_CODE":"US","OBJECT_TYPE":"PAYLOAD","OBJECT_ID":"2022-017T","FILE":"3744865","EPOCH":"2023-01-14T13:59:12.624864","ELEMENT_SET_NO":"999","BSTAR":"0.00016130000000","RA_OF_ASC_NODE":"102.1625","APOAPSIS":"541.169","REF_FRAME":"TEME","ARG_OF_PERICENTER":"43.4280","MEAN_ANOMALY":"316.6878","TLE_LINE2":"2 51785  53.2162 102.1625 0002100  43.4280 316.6878 15.08849624 50481","PERIOD":"95.437","REV_AT_EPOCH":"5048","PERIAPSIS":"538.263","MEAN_ELEMENT_THEORY":"SGP4","LAUNCH_DATE":"2022-02-25","NORAD_CAT_ID":"51785","MEAN_MOTION":"15.08849624","DECAY_DATE":null,"SITE":"AFWTR","INCLINATION":"53.2162","RCS_SIZE":"LARGE","SEMIMAJOR_AXIS":"6917.851","MEAN_MOTION_DDOT":"0.0000000000000","ECCENTRICITY":"0.00021000","TIME_SYSTEM":"UTC","EPHEMERIS_TYPE":"0","CLASSIFICATION_TYPE":"U","TLE_LINE1":"1 51785U 22017T   23014.58278501  .00002280  00000-0  16130-3 0  9990"},{"MEAN_ANOMALY":"307.8852","TLE_LINE2":"2 51786  53.2131 112.0833 0003019  52.2413 307.8852 15.08844352 50347","PERIOD":"95.437","MEAN_MOTION":"15.08844352","DECAY_DATE":null,"MEAN_ELEMENT_THEORY":"SGP4","LAUNCH_DATE":"2022-02-25","NORAD_CAT_ID":"51786","REV_AT_EPOCH":"5034","PERIAPSIS":"537.644","INCLINATION":"53.2131","SITE":"AFWTR","SEMIMAJOR_AXIS":"6917.867","RCS_SIZE":"LARGE","EPHEMERIS_TYPE":"0","TIME_SYSTEM":"UTC","ECCENTRICITY":"0.00030190","MEAN_MOTION_DDOT":"0.0000000000000","TLE_LINE1":"1 51786U 22017U   23014.59658877 -.00003463  00000-0 -19953-3 0  9992","CLASSIFICATION_TYPE":"U","OBJECT_NAME":"STARLINK-3638","MEAN_MOTION_DOT":"-0.00003463","CENTER_NAME":"EARTH","OBJECT_TYPE":"PAYLOAD","COUNTRY_CODE":"US","GP_ID":"223001786","FILE":"3744865","OBJECT_ID":"2022-017U","ELEMENT_SET_NO":"999","EPOCH":"2023-01-14T14:19:05.269728","RA_OF_ASC_NODE":"112.0833","BSTAR":"-0.00019953000000","ARG_OF_PERICENTER":"52.2413","REF_FRAME":"TEME","APOAPSIS":"541.821"},{"RA_OF_ASC_NODE":"114.4096","BSTAR":"0.00041529000000","APOAPSIS":"541.593","ARG_OF_PERICENTER":"45.5955","REF_FRAME":"TEME","FILE":"3744431","OBJECT_ID":"2022-017V","EPOCH":"2023-01-14T01:57:13.311648","ELEMENT_SET_NO":"999","CENTER_NAME":"EARTH","GP_ID":"222992897","COUNTRY_CODE":"US","OBJECT_TYPE":"PAYLOAD","MEAN_MOTION_DOT":"0.00006325","OBJECT_NAME":"STARLINK-3619","MEAN_MOTION_DDOT":"0.0000000000000","ECCENTRICITY":"0.00026240","EPHEMERIS_TYPE":"0","TIME_SYSTEM":"UTC","CLASSIFICATION_TYPE":"U","TLE_LINE1":"1 51787U 22017V   23014.08140407  .00006325  00000-0  41529-3 0  9994","SITE":"AFWTR","INCLINATION":"53.2163","RCS_SIZE":"LARGE","SEMIMAJOR_AXIS":"6917.913","LAUNCH_DATE":"2022-02-25","MEAN_ELEMENT_THEORY":"SGP4","NORAD_CAT_ID":"51787","PERIAPSIS":"537.963","REV_AT_EPOCH":"5021","DECAY_DATE":null,"MEAN_MOTION":"15.08829352","MEAN_ANOMALY":"314.5252","TLE_LINE2":"2 51787  53.2163 114.4096 0002624  45.5955 314.5252 15.08829352 50215","PERIOD":"95.438"},{"CLASSIFICATION_TYPE":"U","TLE_LINE1":"1 51788U 22017W   23014.98300949  .00000964  00000-0  78718-4 0  9997","MEAN_MOTION_DDOT":"0.0000000000000","ECCENTRICITY":"0.00027360","EPHEMERIS_TYPE":"0","TIME_SYSTEM":"UTC","RCS_SIZE":"LARGE","SEMIMAJOR_AXIS":"6917.898","SITE":"AFWTR","INCLINATION":"53.2126","LAUNCH_DATE":"2022-02-25","MEAN_ELEMENT_THEORY":"SGP4","NORAD_CAT_ID":"51788","PERIAPSIS":"537.871","REV_AT_EPOCH":"5035","DECAY_DATE":null,"MEAN_MOTION":"15.08834108","PERIOD":"95.438","TLE_LINE2":"2 51788  53.2126 110.3630 0002736  89.7234 270.4072 15.08834108 50358","MEAN_ANOMALY":"270.4072","APOAPSIS":"541.656","ARG_OF_PERICENTER":"89.7234","REF_FRAME":"TEME","RA_OF_ASC_NODE":"110.3630","BSTAR":"0.00007871800000","EPOCH":"2023-01-14T23:35:32.019936","ELEMENT_SET_NO":"999","FILE":"3745266","OBJECT_ID":"2022-017W","GP_ID":"223028309","OBJECT_TYPE":"PAYLOAD","COUNTRY_CODE":"US","CENTER_NAME":"EARTH","MEAN_MOTION_DOT":"0.00000964","OBJECT_NAME":"STARLINK-3641"}];
